ICEYE-X53               
1 64584U 25135BJ  26186.29141416  .00000820  00000+0  69252-4 0  9991
2 64584  97.7372 302.9961 0001513 163.8289 196.2983 15.00850611 56793
ICEYE-X65               
1 66300U 25248H   26186.03697517  .00005364  00000+0  36004-3 0  9990
2 66300  45.4048  40.3183 0004490 140.6390 219.4819 15.07883883 38210
ICEYE-X66               
1 66301U 25248J   26185.97688402  .00005815  00000+0  37605-3 0  9995
2 66301  45.4018  39.8223 0004131 134.6526 225.4693 15.09129559 38191
ICEYE-X67               
1 66302U 25248K   26186.00145078  .00006126  00000+0  39552-3 0  9997
2 66302  45.4053  39.2662 0005736 136.5846 223.5489 15.09112399 38219
ICEYE-X58               
1 66751U 25276CP  26185.92559317  .00003453  00000+0  17632-3 0  9996
2 66751  97.4202 259.0154 0001769 275.0252  85.0780 15.17359531 33108
ICEYE-X59               
1 66752U 25276CQ  26184.21082147  .00005013  00000+0  39706-3 0  9990
2 66752  97.4342 254.8252 0001994  81.6239 278.5212 15.00999241 32672
ICEYE-X60               
1 66753U 25276CR  26185.67111483  .00008592  00000+0  51832-3 0  9997
2 66753  97.4152 257.8269 0001608 328.1783  31.9350 15.10975360 33007
ICEYE-X61               
1 66754U 25276CS  26186.15017416  .00005786  00000+0  28320-3 0  9991
2 66754  97.4192 259.3055 0001588 275.3654  84.7399 15.18568044 33148
ICEYE-X62               
1 66755U 25276CT  26186.15353440  .00003622  00000+0  22611-3 0  9996
2 66755  97.4191 257.7994 0001139 338.8540  21.2643 15.10104556 33046
ICEYE-X63               
1 67372U 26004K   26186.30147860  .00001327  00000+0  14927-3 0  9997
2 67372  97.8007 184.6578 0005804  76.0604 284.1258 14.88337052 25993
ICEYE-X64               
1 67373U 26004L   26185.94429210  .00001856  00000+0  20820-3 0  9995
2 67373  97.8019 184.2294 0007606  80.7986 279.4090 14.87970211 25939
ICEYE-X71               
1 68494U 26067CG  26185.83749695  .00004793  00000+0  48105-3 0  9998
2 68494  97.7623 143.8019 0002001  20.5233 339.6066 14.91761687 14357
ICEYE-X73               
1 68496U 26067CJ  26185.60083740  .00003980  00000+0  39498-3 0  9999
2 68496  97.7614 143.6461 0000505 170.4435 189.6794 14.92314169 14322
ICEYE-X75               
1 68497U 26067CK  26185.60414185  .00001349  00000+0  13805-3 0  9992
2 68497  97.7600 143.6215 0000517 150.1704 209.9544 14.92159321 14328
ICEYE-X74               
1 68500U 26067CN  26185.83663367  .00004785  00000+0  48027-3 0  9991
2 68500  97.7625 143.8106 0001812  17.6941 342.4341 14.91761784 14352
ICEYE-X76               
1 68502U 26067CQ  26185.83229031  .00001576  00000+0  16205-3 0  9997
2 68502  97.7632 143.8235 0001496   5.1384 354.9850 14.91736788 14355
