{"fetched_at":"2026-07-05T12:48:00.609Z","source":"https://celestrak.org/NORAD/elements/gp.php?NAME=ICEYE&FORMAT=JSON","constellation":"iceye","records":[{"OBJECT_NAME":"ICEYE-X53","OBJECT_ID":"2025-135BJ","EPOCH":"2026-07-05T06:59:38.183424","CLASSIFICATION_TYPE":"U","MEAN_MOTION":15.00850611,"ECCENTRICITY":0.00015133,"INCLINATION":97.7372,"RA_OF_ASC_NODE":302.9961,"ARG_OF_PERICENTER":163.8289,"MEAN_ANOMALY":196.2983,"EPHEMERIS_TYPE":0,"NORAD_CAT_ID":64584,"ELEMENT_SET_NO":999,"REV_AT_EPOCH":5679,"BSTAR":0.000069251816,"MEAN_MOTION_DOT":0.0000082,"MEAN_MOTION_DDOT":0},{"OBJECT_NAME":"ICEYE-X65","OBJECT_ID":"2025-248H","EPOCH":"2026-07-05T00:53:14.654688","CLASSIFICATION_TYPE":"U","MEAN_MOTION":15.07883883,"ECCENTRICITY":0.00044909,"INCLINATION":45.4048,"RA_OF_ASC_NODE":40.3183,"ARG_OF_PERICENTER":140.639,"MEAN_ANOMALY":219.4819,"EPHEMERIS_TYPE":0,"NORAD_CAT_ID":66300,"ELEMENT_SET_NO":999,"REV_AT_EPOCH":3821,"BSTAR":0.0003600404,"MEAN_MOTION_DOT":0.00005364,"MEAN_MOTION_DDOT":0},{"OBJECT_NAME":"ICEYE-X66","OBJECT_ID":"2025-248J","EPOCH":"2026-07-04T23:26:42.779328","CLASSIFICATION_TYPE":"U","MEAN_MOTION":15.09129559,"ECCENTRICITY":0.00041319,"INCLINATION":45.4018,"RA_OF_ASC_NODE":39.8223,"ARG_OF_PERICENTER":134.6526,"MEAN_ANOMALY":225.4693,"EPHEMERIS_TYPE":0,"NORAD_CAT_ID":66301,"ELEMENT_SET_NO":999,"REV_AT_EPOCH":3819,"BSTAR":0.00037605103,"MEAN_MOTION_DOT":0.00005815,"MEAN_MOTION_DDOT":0},{"OBJECT_NAME":"ICEYE-X67","OBJECT_ID":"2025-248K","EPOCH":"2026-07-05T00:02:05.347392","CLASSIFICATION_TYPE":"U","MEAN_MOTION":15.09112399,"ECCENTRICITY":0.00057369,"INCLINATION":45.4053,"RA_OF_ASC_NODE":39.2662,"ARG_OF_PERICENTER":136.5846,"MEAN_ANOMALY":223.5489,"EPHEMERIS_TYPE":0,"NORAD_CAT_ID":66302,"ELEMENT_SET_NO":999,"REV_AT_EPOCH":3821,"BSTAR":0.00039551665,"MEAN_MOTION_DOT":0.00006126,"MEAN_MOTION_DDOT":0},{"OBJECT_NAME":"ICEYE-X58","OBJECT_ID":"2025-276CP","EPOCH":"2026-07-04T22:12:51.249888","CLASSIFICATION_TYPE":"U","MEAN_MOTION":15.17359531,"ECCENTRICITY":0.00017692,"INCLINATION":97.4202,"RA_OF_ASC_NODE":259.0154,"ARG_OF_PERICENTER":275.0252,"MEAN_ANOMALY":85.078,"EPHEMERIS_TYPE":0,"NORAD_CAT_ID":66751,"ELEMENT_SET_NO":999,"REV_AT_EPOCH":3310,"BSTAR":0.00017631975,"MEAN_MOTION_DOT":0.00003453,"MEAN_MOTION_DDOT":0},{"OBJECT_NAME":"ICEYE-X59","OBJECT_ID":"2025-276CQ","EPOCH":"2026-07-03T05:03:34.975008","CLASSIFICATION_TYPE":"U","MEAN_MOTION":15.00999241,"ECCENTRICITY":0.00019947,"INCLINATION":97.4342,"RA_OF_ASC_NODE":254.8252,"ARG_OF_PERICENTER":81.6239,"MEAN_ANOMALY":278.5212,"EPHEMERIS_TYPE":0,"NORAD_CAT_ID":66752,"ELEMENT_SET_NO":999,"REV_AT_EPOCH":3267,"BSTAR":0.00039706464,"MEAN_MOTION_DOT":0.00005013,"MEAN_MOTION_DDOT":0},{"OBJECT_NAME":"ICEYE-X60","OBJECT_ID":"2025-276CR","EPOCH":"2026-07-04T16:06:24.321312","CLASSIFICATION_TYPE":"U","MEAN_MOTION":15.1097536,"ECCENTRICITY":0.0001608,"INCLINATION":97.4152,"RA_OF_ASC_NODE":257.8269,"ARG_OF_PERICENTER":328.1783,"MEAN_ANOMALY":31.935,"EPHEMERIS_TYPE":0,"NORAD_CAT_ID":66753,"ELEMENT_SET_NO":999,"REV_AT_EPOCH":3300,"BSTAR":0.00051831814,"MEAN_MOTION_DOT":0.00008592,"MEAN_MOTION_DDOT":0},{"OBJECT_NAME":"ICEYE-X61","OBJECT_ID":"2025-276CS","EPOCH":"2026-07-05T03:36:15.047424","CLASSIFICATION_TYPE":"U","MEAN_MOTION":15.18568044,"ECCENTRICITY":0.00015882,"INCLINATION":97.4192,"RA_OF_ASC_NODE":259.3055,"ARG_OF_PERICENTER":275.3654,"MEAN_ANOMALY":84.7399,"EPHEMERIS_TYPE":0,"NORAD_CAT_ID":66754,"ELEMENT_SET_NO":999,"REV_AT_EPOCH":3314,"BSTAR":0.00028319902,"MEAN_MOTION_DOT":0.00005786,"MEAN_MOTION_DDOT":0},{"OBJECT_NAME":"ICEYE-X62","OBJECT_ID":"2025-276CT","EPOCH":"2026-07-05T03:41:05.372160","CLASSIFICATION_TYPE":"U","MEAN_MOTION":15.10104556,"ECCENTRICITY":0.00011395,"INCLINATION":97.4191,"RA_OF_ASC_NODE":257.7994,"ARG_OF_PERICENTER":338.854,"MEAN_ANOMALY":21.2643,"EPHEMERIS_TYPE":0,"NORAD_CAT_ID":66755,"ELEMENT_SET_NO":999,"REV_AT_EPOCH":3304,"BSTAR":0.000226111,"MEAN_MOTION_DOT":0.00003622,"MEAN_MOTION_DDOT":0},{"OBJECT_NAME":"ICEYE-X63","OBJECT_ID":"2026-004K","EPOCH":"2026-07-05T07:14:07.751040","CLASSIFICATION_TYPE":"U","MEAN_MOTION":14.88337052,"ECCENTRICITY":0.00058047,"INCLINATION":97.8007,"RA_OF_ASC_NODE":184.6578,"ARG_OF_PERICENTER":76.0604,"MEAN_ANOMALY":284.1258,"EPHEMERIS_TYPE":0,"NORAD_CAT_ID":67372,"ELEMENT_SET_NO":999,"REV_AT_EPOCH":2599,"BSTAR":0.00014926837,"MEAN_MOTION_DOT":0.00001327,"MEAN_MOTION_DDOT":0},{"OBJECT_NAME":"ICEYE-X64","OBJECT_ID":"2026-004L","EPOCH":"2026-07-04T22:39:46.837440","CLASSIFICATION_TYPE":"U","MEAN_MOTION":14.87970211,"ECCENTRICITY":0.00076065,"INCLINATION":97.8019,"RA_OF_ASC_NODE":184.2294,"ARG_OF_PERICENTER":80.7986,"MEAN_ANOMALY":279.409,"EPHEMERIS_TYPE":0,"NORAD_CAT_ID":67373,"ELEMENT_SET_NO":999,"REV_AT_EPOCH":2593,"BSTAR":0.00020820181,"MEAN_MOTION_DOT":0.00001856,"MEAN_MOTION_DDOT":0},{"OBJECT_NAME":"ICEYE-X71","OBJECT_ID":"2026-067CG","EPOCH":"2026-07-04T20:05:59.736480","CLASSIFICATION_TYPE":"U","MEAN_MOTION":14.91761687,"ECCENTRICITY":0.00020014,"INCLINATION":97.7623,"RA_OF_ASC_NODE":143.8019,"ARG_OF_PERICENTER":20.5233,"MEAN_ANOMALY":339.6066,"EPHEMERIS_TYPE":0,"NORAD_CAT_ID":68494,"ELEMENT_SET_NO":999,"REV_AT_EPOCH":1435,"BSTAR":0.00048105128,"MEAN_MOTION_DOT":0.00004793,"MEAN_MOTION_DDOT":0},{"OBJECT_NAME":"ICEYE-X73","OBJECT_ID":"2026-067CJ","EPOCH":"2026-07-04T14:25:12.351360","CLASSIFICATION_TYPE":"U","MEAN_MOTION":14.92314169,"ECCENTRICITY":0.00005059,"INCLINATION":97.7614,"RA_OF_ASC_NODE":143.6461,"ARG_OF_PERICENTER":170.4435,"MEAN_ANOMALY":189.6794,"EPHEMERIS_TYPE":0,"NORAD_CAT_ID":68496,"ELEMENT_SET_NO":999,"REV_AT_EPOCH":1432,"BSTAR":0.00039497994,"MEAN_MOTION_DOT":0.0000398,"MEAN_MOTION_DDOT":0},{"OBJECT_NAME":"ICEYE-X75","OBJECT_ID":"2026-067CK","EPOCH":"2026-07-04T14:29:57.855840","CLASSIFICATION_TYPE":"U","MEAN_MOTION":14.92159321,"ECCENTRICITY":0.00005179,"INCLINATION":97.76,"RA_OF_ASC_NODE":143.6215,"ARG_OF_PERICENTER":150.1704,"MEAN_ANOMALY":209.9544,"EPHEMERIS_TYPE":0,"NORAD_CAT_ID":68497,"ELEMENT_SET_NO":999,"REV_AT_EPOCH":1432,"BSTAR":0.00013805015,"MEAN_MOTION_DOT":0.00001349,"MEAN_MOTION_DDOT":0},{"OBJECT_NAME":"ICEYE-X74","OBJECT_ID":"2026-067CN","EPOCH":"2026-07-04T20:04:45.149088","CLASSIFICATION_TYPE":"U","MEAN_MOTION":14.91761784,"ECCENTRICITY":0.0001812,"INCLINATION":97.7625,"RA_OF_ASC_NODE":143.8106,"ARG_OF_PERICENTER":17.6941,"MEAN_ANOMALY":342.4341,"EPHEMERIS_TYPE":0,"NORAD_CAT_ID":68500,"ELEMENT_SET_NO":999,"REV_AT_EPOCH":1435,"BSTAR":0.00048027406,"MEAN_MOTION_DOT":0.00004785,"MEAN_MOTION_DDOT":0},{"OBJECT_NAME":"ICEYE-X76","OBJECT_ID":"2026-067CQ","EPOCH":"2026-07-04T19:58:29.882784","CLASSIFICATION_TYPE":"U","MEAN_MOTION":14.91736788,"ECCENTRICITY":0.00014968,"INCLINATION":97.7632,"RA_OF_ASC_NODE":143.8235,"ARG_OF_PERICENTER":5.1384,"MEAN_ANOMALY":354.985,"EPHEMERIS_TYPE":0,"NORAD_CAT_ID":68502,"ELEMENT_SET_NO":999,"REV_AT_EPOCH":1435,"BSTAR":0.00016205326,"MEAN_MOTION_DOT":0.00001576,"MEAN_MOTION_DDOT":0}]}
